start=new Date('2021-10-24T00:00:00.000Z').valueOf();
sats=[{"PERIOD":"95.593","RA_OF_ASC_NODE":"280.4777","TLE_LINE1":"1 44969U 20001BH  21296.65491682  .00000244  00000-0  35305-4 0  9996","ECCENTRICITY":"0.00013470","RCS_SIZE":"LARGE","SEMIMAJOR_AXIS":"6925.366","LAUNCH_DATE":"2020-01-07","MEAN_ELEMENT_THEORY":"SGP4","PERIAPSIS":"546.298","REV_AT_EPOCH":"9954","OBJECT_TYPE":"PAYLOAD","MEAN_MOTION_DOT":"0.00000244","EPOCH":"2021-10-23T15:43:04.813248","TLE_LINE2":"2 44969  53.0543 280.4777 0001347  70.7204 289.3931 15.06394319 99547","FILE":"3181152","ELEMENT_SET_NO":"999","APOAPSIS":"548.164","OBJECT_NAME":"STARLINK-1092","SITE":"AFETR","ARG_OF_PERICENTER":"70.7204","MEAN_MOTION_DDOT":"0.0000000000000","MEAN_MOTION":"15.06394319","OBJECT_ID":"2020-001BH","DECAY_DATE":null,"TIME_SYSTEM":"UTC","BSTAR":"0.00003530500000","REF_FRAME":"TEME","GP_ID":"188022265","MEAN_ANOMALY":"289.3931","NORAD_CAT_ID":"44969","COUNTRY_CODE":"US","CENTER_NAME":"EARTH","CLASSIFICATION_TYPE":"U","INCLINATION":"53.0543","EPHEMERIS_TYPE":"0"},{"REF_FRAME":"TEME","GP_ID":"188022515","BSTAR":"0.00011465000000","COUNTRY_CODE":"US","MEAN_ANOMALY":"289.5294","NORAD_CAT_ID":"44970","CLASSIFICATION_TYPE":"U","INCLINATION":"53.0551","CENTER_NAME":"EARTH","EPHEMERIS_TYPE":"0","ELEMENT_SET_NO":"999","FILE":"3181152","APOAPSIS":"548.158","OBJECT_NAME":"STARLINK-1093","SITE":"AFETR","ARG_OF_PERICENTER":"70.5844","OBJECT_ID":"2020-001BJ","DECAY_DATE":null,"MEAN_MOTION_DDOT":"0.0000000000000","MEAN_MOTION":"15.06404661","TIME_SYSTEM":"UTC","REV_AT_EPOCH":"9954","LAUNCH_DATE":"2020-01-07","MEAN_ELEMENT_THEORY":"SGP4","PERIAPSIS":"546.240","OBJECT_TYPE":"PAYLOAD","MEAN_MOTION_DOT":"0.00001427","TLE_LINE2":"2 44970  53.0551 280.2859 0001385  70.5844 289.5294 15.06404661 99543","EPOCH":"2021-10-23T16:46:45.249312","PERIOD":"95.592","RA_OF_ASC_NODE":"280.2859","RCS_SIZE":"LARGE","SEMIMAJOR_AXIS":"6925.334","ECCENTRICITY":"0.00013850","TLE_LINE1":"1 44970U 20001BJ  21296.69913483  .00001427  00000-0  11465-3 0  9994"},{"REV_AT_EPOCH":"9955","PERIAPSIS":"546.290","MEAN_ELEMENT_THEORY":"SGP4","LAUNCH_DATE":"2020-01-07","MEAN_MOTION_DOT":"0.00001205","OBJECT_TYPE":"PAYLOAD","TLE_LINE2":"2 44972  53.0535 280.4073 0001354  84.9204 275.1939 15.06395404 99554","EPOCH":"2021-10-23T16:04:18.662016","PERIOD":"95.592","RA_OF_ASC_NODE":"280.4073","RCS_SIZE":"LARGE","SEMIMAJOR_AXIS":"6925.363","ECCENTRICITY":"0.00013540","TLE_LINE1":"1 44972U 20001BL  21296.66966044  .00001205  00000-0  99807-4 0  9995","REF_FRAME":"TEME","GP_ID":"188023267","BSTAR":"0.00009980700000","COUNTRY_CODE":"US","NORAD_CAT_ID":"44972","MEAN_ANOMALY":"275.1939","INCLINATION":"53.0535","CLASSIFICATION_TYPE":"U","CENTER_NAME":"EARTH","EPHEMERIS_TYPE":"0","OBJECT_NAME":"STARLINK-1107","FILE":"3181152","APOAPSIS":"548.165","ELEMENT_SET_NO":"999","ARG_OF_PERICENTER":"84.9204","SITE":"AFETR","DECAY_DATE":null,"OBJECT_ID":"2020-001BL","MEAN_MOTION":"15.06395404","MEAN_MOTION_DDOT":"0.0000000000000","TIME_SYSTEM":"UTC"},{"TIME_SYSTEM":"UTC","MEAN_MOTION":"15.06402467","MEAN_MOTION_DDOT":"0.0000000000000","DECAY_DATE":null,"OBJECT_ID":"2020-001BM","SITE":"AFETR","ARG_OF_PERICENTER":"71.5173","OBJECT_NAME":"STARLINK-1115","FILE":"3181152","APOAPSIS":"548.254","ELEMENT_SET_NO":"999","EPHEMERIS_TYPE":"0","CENTER_NAME":"EARTH","INCLINATION":"53.0550","CLASSIFICATION_TYPE":"U","MEAN_ANOMALY":"288.5981","NORAD_CAT_ID":"44973","COUNTRY_CODE":"US","BSTAR":"0.00012492000000","GP_ID":"188023018","REF_FRAME":"TEME","TLE_LINE1":"1 44973U 20001BM  21296.64753976  .00001580  00000-0  12492-3 0  9992","RCS_SIZE":"LARGE","SEMIMAJOR_AXIS":"6925.341","ECCENTRICITY":"0.00015130","RA_OF_ASC_NODE":"280.5134","PERIOD":"95.592","EPOCH":"2021-10-23T15:32:27.435264","TLE_LINE2":"2 44973  53.0550 280.5134 0001513  71.5173 288.5981 15.06402467 99547","MEAN_MOTION_DOT":"0.00001580","OBJECT_TYPE":"PAYLOAD","MEAN_ELEMENT_THEORY":"SGP4","PERIAPSIS":"546.158","LAUNCH_DATE":"2020-01-07","REV_AT_EPOCH":"9954"},{"TLE_LINE2":"2 45044  53.0548 240.0333 0001613  68.0736 292.0424 15.06397918 95893","EPOCH":"2021-10-23T18:06:22.847904","OBJECT_TYPE":"PAYLOAD","MEAN_MOTION_DOT":"0.00000567","REV_AT_EPOCH":"9589","LAUNCH_DATE":"2020-01-29","MEAN_ELEMENT_THEORY":"SGP4","PERIAPSIS":"546.103","RCS_SIZE":"LARGE","SEMIMAJOR_AXIS":"6925.355","ECCENTRICITY":"0.00016130","TLE_LINE1":"1 45044U 20006A   21296.75443111  .00000567  00000-0  56963-4 0  9992","RA_OF_ASC_NODE":"240.0333","PERIOD":"95.592","EPHEMERIS_TYPE":"0","CLASSIFICATION_TYPE":"U","INCLINATION":"53.0548","CENTER_NAME":"EARTH","COUNTRY_CODE":"US","NORAD_CAT_ID":"45044","MEAN_ANOMALY":"292.0424","GP_ID":"188023524","REF_FRAME":"TEME","BSTAR":"0.00005696300000","TIME_SYSTEM":"UTC","OBJECT_ID":"2020-006A","DECAY_DATE":null,"MEAN_MOTION_DDOT":"0.0000000000000","MEAN_MOTION":"15.06397918","SITE":"AFETR","ARG_OF_PERICENTER":"68.0736","FILE":"3181152","ELEMENT_SET_NO":"999","APOAPSIS":"548.337","OBJECT_NAME":"STARLINK-1132"},{"REF_FRAME":"TEME","GP_ID":"188022272","BSTAR":"0.00014657000000","COUNTRY_CODE":"US","MEAN_ANOMALY":"289.3924","NORAD_CAT_ID":"45045","CLASSIFICATION_TYPE":"U","INCLINATION":"53.0541","CENTER_NAME":"EARTH","EPHEMERIS_TYPE":"0","ELEMENT_SET_NO":"999","FILE":"3181152","APOAPSIS":"548.249","OBJECT_NAME":"STARLINK-1120","SITE":"AFETR","ARG_OF_PERICENTER":"70.7230","OBJECT_ID":"2020-006B","DECAY_DATE":null,"MEAN_MOTION_DDOT":"0.0000000000000","MEAN_MOTION":"15.06406520","TIME_SYSTEM":"UTC","REV_AT_EPOCH":"9559","LAUNCH_DATE":"2020-01-29","PERIAPSIS":"546.138","MEAN_ELEMENT_THEORY":"SGP4","OBJECT_TYPE":"PAYLOAD","MEAN_MOTION_DOT":"0.00001903","TLE_LINE2":"2 45045  53.0541 260.6842 0001524  70.7230 289.3924 15.06406520 95591","EPOCH":"2021-10-23T14:36:42.907680","PERIOD":"95.592","RA_OF_ASC_NODE":"260.6842","SEMIMAJOR_AXIS":"6925.329","RCS_SIZE":"LARGE","ECCENTRICITY":"0.00015240","TLE_LINE1":"1 45045U 20006B   21296.60882995  .00001903  00000-0  14657-3 0  9992"},{"CENTER_NAME":"EARTH","CLASSIFICATION_TYPE":"U","INCLINATION":"52.9979","EPHEMERIS_TYPE":"0","BSTAR":"0.00031799000000","REF_FRAME":"TEME","GP_ID":"188022522","NORAD_CAT_ID":"45046","MEAN_ANOMALY":"285.0579","COUNTRY_CODE":"US","MEAN_MOTION_DDOT":"0.0000000000000","MEAN_MOTION":"15.08200075","OBJECT_ID":"2020-006C","DECAY_DATE":null,"TIME_SYSTEM":"UTC","APOAPSIS":"542.782","FILE":"3181152","ELEMENT_SET_NO":"999","OBJECT_NAME":"STARLINK-1129","SITE":"AFETR","ARG_OF_PERICENTER":"75.0582","OBJECT_TYPE":"PAYLOAD","MEAN_MOTION_DOT":"0.00004691","EPOCH":"2021-10-23T14:10:54.047712","TLE_LINE2":"2 45046  52.9979 257.3509 0001560  75.0582 285.0579 15.08200075 95617","LAUNCH_DATE":"2020-01-29","PERIAPSIS":"540.623","MEAN_ELEMENT_THEORY":"SGP4","REV_AT_EPOCH":"9561","RA_OF_ASC_NODE":"257.3509","TLE_LINE1":"1 45046U 20006C   21296.59090333  .00004691  00000-0  31799-3 0  9991","ECCENTRICITY":"0.00015600","RCS_SIZE":"LARGE","SEMIMAJOR_AXIS":"6919.837","PERIOD":"95.478"},{"PERIOD":"95.593","RA_OF_ASC_NODE":"260.6759","TLE_LINE1":"1 45047U 20006D   21296.61252900  .00001508  00000-0  12014-3 0  9998","RCS_SIZE":"LARGE","SEMIMAJOR_AXIS":"6925.366","ECCENTRICITY":"0.00015840","MEAN_ELEMENT_THEORY":"SGP4","PERIAPSIS":"546.134","LAUNCH_DATE":"2020-01-29","REV_AT_EPOCH":"9559","MEAN_MOTION_DOT":"0.00001508","OBJECT_TYPE":"PAYLOAD","EPOCH":"2021-10-23T14:42:02.505600","TLE_LINE2":"2 45047  53.0539 260.6759 0001584  79.0137 281.1030 15.06394310 95592","OBJECT_NAME":"STARLINK-1131","FILE":"3181152","APOAPSIS":"548.328","ELEMENT_SET_NO":"999","ARG_OF_PERICENTER":"79.0137","SITE":"AFETR","MEAN_MOTION":"15.06394310","MEAN_MOTION_DDOT":"0.0000000000000","DECAY_DATE":null,"OBJECT_ID":"2020-006D","TIME_SYSTEM":"UTC","BSTAR":"0.00012014000000","REF_FRAME":"TEME","GP_ID":"188023274","MEAN_ANOMALY":"281.1030","NORAD_CAT_ID":"45047","COUNTRY_CODE":"US","CENTER_NAME":"EARTH","INCLINATION":"53.0539","CLASSIFICATION_TYPE":"U","EPHEMERIS_TYPE":"0"},{"FILE":"3181152","APOAPSIS":"548.283","ELEMENT_SET_NO":"999","OBJECT_NAME":"STARLINK-1134","ARG_OF_PERICENTER":"64.2585","SITE":"AFETR","MEAN_MOTION_DDOT":"0.0000000000000","MEAN_MOTION":"15.06389169","OBJECT_ID":"2020-006E","DECAY_DATE":null,"TIME_SYSTEM":"UTC","BSTAR":"0.00012314000000","REF_FRAME":"TEME","GP_ID":"188023025","NORAD_CAT_ID":"45048","MEAN_ANOMALY":"295.8558","COUNTRY_CODE":"US","CENTER_NAME":"EARTH","CLASSIFICATION_TYPE":"U","INCLINATION":"53.0537","EPHEMERIS_TYPE":"0","PERIOD":"95.593","RA_OF_ASC_NODE":"260.6368","TLE_LINE1":"1 45048U 20006E   21296.61990869  .00001553  00000-0  12314-3 0  9995","RCS_SIZE":"LARGE","ECCENTRICITY":"0.00014970","SEMIMAJOR_AXIS":"6925.382","LAUNCH_DATE":"2020-01-29","PERIAPSIS":"546.210","MEAN_ELEMENT_THEORY":"SGP4","REV_AT_EPOCH":"9559","OBJECT_TYPE":"PAYLOAD","MEAN_MOTION_DOT":"0.00001553","EPOCH":"2021-10-23T14:52:40.110816","TLE_LINE2":"2 45048  53.0537 260.6368 0001497  64.2585 295.8558 15.06389169 95596"},{"ECCENTRICITY":"0.00015230","RCS_SIZE":"LARGE","SEMIMAJOR_AXIS":"6925.360","TLE_LINE1":"1 45049U 20006F   21296.62358255 -.00000507  00000-0 -15147-4 0  9992","RA_OF_ASC_NODE":"260.6232","PERIOD":"95.592","TLE_LINE2":"2 45049  53.0545 260.6232 0001523  70.4895 289.6258 15.06396132 95595","EPOCH":"2021-10-23T14:57:57.532320","OBJECT_TYPE":"PAYLOAD","MEAN_MOTION_DOT":"-0.00000507","REV_AT_EPOCH":"9559","LAUNCH_DATE":"2020-01-29","MEAN_ELEMENT_THEORY":"SGP4","PERIAPSIS":"546.171","TIME_SYSTEM":"UTC","OBJECT_ID":"2020-006F","DECAY_DATE":null,"MEAN_MOTION_DDOT":"0.0000000000000","MEAN_MOTION":"15.06396132","SITE":"AFETR","ARG_OF_PERICENTER":"70.4895","APOAPSIS":"548.280","FILE":"3181152","ELEMENT_SET_NO":"999","OBJECT_NAME":"STARLINK-1135","EPHEMERIS_TYPE":"0","CLASSIFICATION_TYPE":"U","INCLINATION":"53.0545","CENTER_NAME":"EARTH","COUNTRY_CODE":"US","NORAD_CAT_ID":"45049","MEAN_ANOMALY":"289.6258","GP_ID":"188021773","REF_FRAME":"TEME","BSTAR":"-0.00001514700000"}];
